{
    "links": {
        "self": "http://www.neowsapp.com/rest/v1/neo/3703078?api_key=iIulBulltgU6a56xZRHN4H3l9WmuAYTsLGpBGhQ2"
    },
    "id": "3703078",
    "neo_reference_id": "3703078",
    "name": "(2014 YU34)",
    "designation": "2014 YU34",
    "nasa_jpl_url": "http://ssd.jpl.nasa.gov/sbdb.cgi?sstr=3703078",
    "absolute_magnitude_h": 24.3,
    "estimated_diameter": {
        "kilometers": {
            "estimated_diameter_min": 0.0366906138,
            "estimated_diameter_max": 0.0820427065
        },
        "meters": {
            "estimated_diameter_min": 36.6906137531,
            "estimated_diameter_max": 82.0427064882
        },
        "miles": {
            "estimated_diameter_min": 0.0227984834,
            "estimated_diameter_max": 0.0509789586
        },
        "feet": {
            "estimated_diameter_min": 120.3760332259,
            "estimated_diameter_max": 269.1689931548
        }
    },
    "is_potentially_hazardous_asteroid": false,
    "close_approach_data": [
        {
            "close_approach_date": "1955-02-17",
            "close_approach_date_full": "1955-Feb-17 12:26",
            "epoch_date_close_approach": -469280040000,
            "relative_velocity": {
                "kilometers_per_second": "16.0636377154",
                "kilometers_per_hour": "57829.0957755131",
                "miles_per_hour": "35932.7512056237"
            },
            "miss_distance": {
                "astronomical": "0.3484608682",
                "lunar": "135.5512777298",
                "kilometers": "52129003.661070734",
                "miles": "32391460.8629907692"
            },
            "orbiting_body": "Earth"
        },
        {
            "close_approach_date": "1965-12-02",
            "close_approach_date_full": "1965-Dec-02 12:37",
            "epoch_date_close_approach": -128776980000,
            "relative_velocity": {
                "kilometers_per_second": "15.962981013",
                "kilometers_per_hour": "57466.7316467114",
                "miles_per_hour": "35707.5922279247"
            },
            "miss_distance": {
                "astronomical": "0.2817118967",
                "lunar": "109.5859278163",
                "kilometers": "42143499.699980029",
                "miles": "26186756.4175372402"
            },
            "orbiting_body": "Earth"
        },
        {
            "close_approach_date": "2014-12-29",
            "close_approach_date_full": "2014-Dec-29 08:28",
            "epoch_date_close_approach": 1419841680000,
            "relative_velocity": {
                "kilometers_per_second": "10.4673669432",
                "kilometers_per_hour": "37682.5209956251",
                "miles_per_hour": "23414.4531153094"
            },
            "miss_distance": {
                "astronomical": "0.0211171638",
                "lunar": "8.2145767182",
                "kilometers": "3159082.724921106",
                "miles": "1962962.9814630228"
            },
            "orbiting_body": "Earth"
        }
    ],
    "orbital_data": {
        "orbit_id": "5",
        "orbit_determination_date": "2018-02-10 07:06:01",
        "first_observation_date": "2014-12-20",
        "last_observation_date": "2014-12-31",
        "data_arc_in_days": 11,
        "observations_used": 78,
        "orbit_uncertainty": "7",
        "minimum_orbit_intersection": ".0164321",
        "jupiter_tisserand_invariant": "3.706",
        "epoch_osculation": "2459000.5",
        "eccentricity": ".4903349473837565",
        "semi_major_axis": "1.946979005647512",
        "inclination": "14.13990522824526",
        "ascending_node_longitude": "97.88417729424285",
        "orbital_period": "992.2939184428806",
        "perihelion_distance": ".9923071573560602",
        "perihelion_argument": "12.5806722596175",
        "aphelion_distance": "2.901650853938963",
        "perihelion_time": "2459016.410896984370",
        "mean_anomaly": "354.2275944577374",
        "mean_motion": ".3627957335110108",
        "equinox": "J2000",
        "orbit_class": {
            "orbit_class_type": "APO",
            "orbit_class_description": "Near-Earth asteroid orbits which cross the Earth’s orbit similar to that of 1862 Apollo",
            "orbit_class_range": "a (semi-major axis) > 1.0 AU; q (perihelion) < 1.017 AU"
        }
    },
    "is_sentry_object": false
}